{
  "type": "FeatureCollection",
  "features": [
    {
      "type": "Feature",
      "properties": {
        "id": "1",
        "unique.id": "I-1",
        "Trial": "IPS",
        "Provider": "South Yorkshire Housing Association",
        "Area": "Barnsley",
        "URL": "https://www.homelessnessimpact.org/projects/individual-placement-and-support",
        "onsCode": "E08000016",
        "Participants": "70"
      },
      "geometry": {
        "coordinates": [
          -1.4827755,
          53.5527719
        ],
        "type": "Point"
      },
      "id": "1"
    },
    {
      "type": "Feature",
      "properties": {
        "id": "2",
        "unique.id": "I-2",
        "Trial": "IPS",
        "Provider": "South Yorkshire Housing Association",
        "Area": "Rotherham",
        "URL": "https://www.homelessnessimpact.org/projects/individual-placement-and-support",
        "onsCode": "E08000018",
        "Participants": "65"
      },
      "geometry": {
        "coordinates": [
          -1.355187,
          53.4310417
        ],
        "type": "Point"
      },
      "id": "2"
    },
    {
      "type": "Feature",
      "properties": {
        "id": "3",
        "unique.id": "I-3",
        "Trial": "IPS",
        "Provider": "South Yorkshire Housing Association",
        "Area": "Sheffield",
        "URL": "https://www.homelessnessimpact.org/projects/individual-placement-and-support",
        "onsCode": "E08000019",
        "Participants": "53"
      },
      "geometry": {
        "coordinates": [
          -1.4702278,
          53.3806626
        ],
        "type": "Point"
      },
      "id": "3"
    },
    {
      "type": "Feature",
      "properties": {
        "id": "4",
        "unique.id": "I-4",
        "Trial": "IPS",
        "Provider": "Beam Up Ltd",
        "Area": "Barnet",
        "URL": "https://www.homelessnessimpact.org/projects/individual-placement-and-support",
        "onsCode": "E09000003",
        "Participants": "60"
      },
      "geometry": {
        "coordinates": [
          -0.2002261,
          51.65309
        ],
        "type": "Point"
      },
      "id": "4"
    },
    {
      "type": "Feature",
      "properties": {
        "id": "5",
        "unique.id": "I-5",
        "Trial": "IPS",
        "Provider": "Beam Up Ltd",
        "Area": "Fareham",
        "URL": "https://www.homelessnessimpact.org/projects/individual-placement-and-support",
        "onsCode": "E07000087",
        "Participants": "47"
      },
      "geometry": {
        "coordinates": [
          -1.1783134,
          50.8526637
        ],
        "type": "Point"
      },
      "id": "5"
    },
    {
      "type": "Feature",
      "properties": {
        "id": "6",
        "unique.id": "I-6",
        "Trial": "IPS",
        "Provider": "Beam Up Ltd",
        "Area": "Wakefield",
        "URL": "https://www.homelessnessimpact.org/projects/individual-placement-and-support",
        "onsCode": "E08000036",
        "Participants": "61"
      },
      "geometry": {
        "coordinates": [
          -1.4967286,
          53.6829541
        ],
        "type": "Point"
      },
      "id": "6"
    },
    {
      "type": "Feature",
      "properties": {
        "id": "7",
        "unique.id": "I-7",
        "Trial": "IPS",
        "Provider": "Shropshire Council",
        "Area": "Shropshire",
        "URL": "https://www.homelessnessimpact.org/projects/individual-placement-and-support",
        "onsCode": "E06000051",
        "Participants": "81"
      },
      "geometry": {
        "coordinates": [
          -2.6435641,
          52.6523393
        ],
        "type": "Point"
      },
      "id": "7"
    },
    {
      "type": "Feature",
      "properties": {
        "id": "8",
        "unique.id": "I-8",
        "Trial": "IPS",
        "Provider": "Shropshire Council",
        "Area": "Telford and Wrekin",
        "URL": "https://www.homelessnessimpact.org/projects/individual-placement-and-support",
        "onsCode": "E06000051",
        "Participants": "57"
      },
      "geometry": {
        "coordinates": [
          -2.4514273,
          52.6780419
        ],
        "type": "Point"
      },
      "id": "8"
    },
    {
      "type": "Feature",
      "properties": {
        "id": "9",
        "unique.id": "P-1",
        "Trial": "Personalised Budgets",
        "Provider": "Second Step",
        "Area": "Bath and North East Somerset",
        "URL": "https://www.homelessnessimpact.org/projects/personalised-budgets",
        "onsCode": "E06000022",
        "Participants": "N/A"
      },
      "geometry": {
        "coordinates": [
          -2.3596963,
          51.3813864
        ],
        "type": "Point"
      },
      "id": "9"
    },
    {
      "type": "Feature",
      "properties": {
        "id": "10",
        "unique.id": "P-2",
        "Trial": "Personalised Budgets",
        "Provider": "Second Step",
        "Area": "North Somerset",
        "URL": "https://www.homelessnessimpact.org/projects/personalised-budgets",
        "onsCode": "E06000024",
        "Participants": "N/A"
      },
      "geometry": {
        "coordinates": [
          -2.7691289,
          51.3966305
        ],
        "type": "Point"
      },
      "id": "10"
    },
    {
      "type": "Feature",
      "properties": {
        "id": "11",
        "unique.id": "P-3",
        "Trial": "Personalised Budgets",
        "Provider": "Second Step",
        "Area": "South Somersest",
        "URL": "https://www.homelessnessimpact.org/projects/personalised-budgets",
        "onsCode": "E07000189",
        "Participants": "N/A"
      },
      "geometry": {
        "coordinates": [
          -2.7548573,
          51.06161
        ],
        "type": "Point"
      },
      "id": "11"
    },
    {
      "type": "Feature",
      "properties": {
        "id": "12",
        "unique.id": "P-4",
        "Trial": "Personalised Budgets",
        "Provider": "Second Step",
        "Area": "West Somerset",
        "URL": "https://www.homelessnessimpact.org/projects/personalised-budgets",
        "onsCode": "E07000191",
        "Participants": "N/A"
      },
      "geometry": {
        "coordinates": [
          -3.75,
          51.16667
        ],
        "type": "Point"
      },
      "id": "12"
    },
    {
      "type": "Feature",
      "properties": {
        "id": "13",
        "unique.id": "P-5",
        "Trial": "Personalised Budgets",
        "Provider": "Centrepoint",
        "Area": "Westminster",
        "URL": "https://www.homelessnessimpact.org/projects/personalised-budgets",
        "onsCode": "E09000033",
        "Participants": "N/A"
      },
      "geometry": {
        "coordinates": [
          -0.1265398,
          51.5004439
        ],
        "type": "Point"
      },
      "id": "13"
    },
    {
      "type": "Feature",
      "properties": {
        "id": "14",
        "unique.id": "P-6",
        "Trial": "Personalised Budgets",
        "Provider": "Centrepoint",
        "Area": "Wandsworth",
        "URL": "https://www.homelessnessimpact.org/projects/personalised-budgets",
        "onsCode": "E09000032",
        "Participants": "N/A"
      },
      "geometry": {
        "coordinates": [
          -0.1891356,
          51.458373
        ],
        "type": "Point"
      },
      "id": "14"
    },
    {
      "type": "Feature",
      "properties": {
        "id": "15",
        "unique.id": "P-7",
        "Trial": "Personalised Budgets",
        "Provider": "Centrepoint",
        "Area": "Lambeth",
        "URL": "https://www.homelessnessimpact.org/projects/personalised-budgets",
        "onsCode": "E09000022",
        "Participants": "N/A"
      },
      "geometry": {
        "coordinates": [
          -0.1178424,
          51.4935082
        ],
        "type": "Point"
      },
      "id": "15"
    },
    {
      "type": "Feature",
      "properties": {
        "id": "16",
        "unique.id": "P-8",
        "Trial": "Personalised Budgets",
        "Provider": "Centrepoint",
        "Area": "Havering",
        "URL": "https://www.homelessnessimpact.org/projects/personalised-budgets",
        "onsCode": "E09000016",
        "Participants": "N/A"
      },
      "geometry": {
        "coordinates": [
          0.2498128,
          51.5579262
        ],
        "type": "Point"
      },
      "id": "16"
    },
    {
      "type": "Feature",
      "properties": {
        "id": "17",
        "unique.id": "P-9",
        "Trial": "Personalised Budgets",
        "Provider": "Centrepoint",
        "Area": "Hammersmith and Fulham",
        "URL": "https://www.homelessnessimpact.org/projects/personalised-budgets",
        "onsCode": "E09000013",
        "Participants": "N/A"
      },
      "geometry": {
        "coordinates": [
          -0.224428907,
          51.49304199
        ],
        "type": "Point"
      },
      "id": "17"
    },
    {
      "type": "Feature",
      "properties": {
        "id": "18",
        "unique.id": "P-10",
        "Trial": "Personalised Budgets",
        "Provider": "Centrepoint",
        "Area": "Ealing",
        "URL": "https://www.homelessnessimpact.org/projects/personalised-budgets",
        "onsCode": "E09000009",
        "Participants": "N/A"
      },
      "geometry": {
        "coordinates": [
          -0.319441,
          51.512481
        ],
        "type": "Point"
      },
      "id": "18"
    },
    {
      "type": "Feature",
      "properties": {
        "id": "19",
        "unique.id": "P-11",
        "Trial": "Personalised Budgets",
        "Provider": "Centrepoint",
        "Area": "Camden",
        "URL": "https://www.homelessnessimpact.org/projects/personalised-budgets",
        "onsCode": "E09000007",
        "Participants": "N/A"
      },
      "geometry": {
        "coordinates": [
          -0.1425516,
          51.5390261
        ],
        "type": "Point"
      },
      "id": "19"
    },
    {
      "type": "Feature",
      "properties": {
        "id": "20",
        "unique.id": "P-12",
        "Trial": "Personalised Budgets",
        "Provider": "Centrepoint",
        "Area": "Barnet",
        "URL": "https://www.homelessnessimpact.org/projects/personalised-budgets",
        "onsCode": "E09000003",
        "Participants": "N/A"
      },
      "geometry": {
        "coordinates": [
          -0.2076295,
          51.6049673
        ],
        "type": "Point"
      },
      "id": "20"
    },
    {
      "type": "Feature",
      "properties": {
        "id": "21",
        "unique.id": "P-13",
        "Trial": "Personalised Budgets",
        "Provider": "Centrepoint",
        "Area": "Barnsley",
        "URL": "https://www.homelessnessimpact.org/projects/personalised-budgets",
        "onsCode": "E08000016",
        "Participants": "N/A"
      },
      "geometry": {
        "coordinates": [
          -1.479726,
          53.55263
        ],
        "type": "Point"
      },
      "id": "21"
    },
    {
      "type": "Feature",
      "properties": {
        "id": "22",
        "unique.id": "P-14",
        "Trial": "Personalised Budgets",
        "Provider": "Centrepoint",
        "Area": "Bradford",
        "URL": "https://www.homelessnessimpact.org/projects/personalised-budgets",
        "onsCode": "E08000032",
        "Participants": "N/A"
      },
      "geometry": {
        "coordinates": [
          -1.7563583,
          53.7937996
        ],
        "type": "Point"
      },
      "id": "22"
    },
    {
      "type": "Feature",
      "properties": {
        "id": "23",
        "unique.id": "P-15",
        "Trial": "Personalised Budgets",
        "Provider": "Centrepoint",
        "Area": "Manchester",
        "URL": "https://www.homelessnessimpact.org/projects/personalised-budgets",
        "onsCode": "E08000003",
        "Participants": "N/A"
      },
      "geometry": {
        "coordinates": [
          -2.2426305,
          53.4807593
        ],
        "type": "Point"
      },
      "id": "23"
    },
    {
      "type": "Feature",
      "properties": {
        "id": "24",
        "unique.id": "P-16",
        "Trial": "Personalised Budgets",
        "Provider": "Depaul UK",
        "Area": "London",
        "URL": "https://www.homelessnessimpact.org/projects/personalised-budgets",
        "onsCode": "E12000007",
        "Participants": "N/A"
      },
      "geometry": {
        "coordinates": [
          -0.1275862,
          51.5072178
        ],
        "type": "Point"
      },
      "id": "24"
    },
    {
      "type": "Feature",
      "properties": {
        "id": "25",
        "unique.id": "P-17",
        "Trial": "Personalised Budgets",
        "Provider": "Cambridge Cyrenians",
        "Area": "Cambridge",
        "URL": "https://www.homelessnessimpact.org/projects/personalised-budgets",
        "onsCode": "E07000008",
        "Participants": "N/A"
      },
      "geometry": {
        "coordinates": [
          0.1312729,
          52.1950788
        ],
        "type": "Point"
      },
      "id": "25"
    },
    {
      "type": "Feature",
      "properties": {
        "id": "26",
        "unique.id": "P-18",
        "Trial": "Personalised Budgets",
        "Provider": "Action Homeless",
        "Area": "Leicester",
        "URL": "https://www.homelessnessimpact.org/projects/personalised-budgets",
        "onsCode": "E06000016",
        "Participants": "N/A"
      },
      "geometry": {
        "coordinates": [
          -1.1397592,
          52.6368778
        ],
        "type": "Point"
      },
      "id": "26"
    },
    {
      "type": "Feature",
      "properties": {
        "id": "27",
        "unique.id": "P-19",
        "Trial": "Personalised Budgets",
        "Provider": "Action Homeless",
        "Area": "North West Leicestershire",
        "URL": "https://www.homelessnessimpact.org/projects/personalised-budgets",
        "onsCode": "E07000134",
        "Participants": "N/A"
      },
      "geometry": {
        "coordinates": [
          -1.4735321,
          52.7466112
        ],
        "type": "Point"
      },
      "id": "27"
    },
    {
      "type": "Feature",
      "properties": {
        "id": "28",
        "unique.id": "P-20",
        "Trial": "Personalised Budgets",
        "Provider": "Turning Lives Around Ltd",
        "Area": "Leeds",
        "URL": "https://www.homelessnessimpact.org/projects/personalised-budgets",
        "onsCode": "E08000035",
        "Participants": "N/A"
      },
      "geometry": {
        "coordinates": [
          -1.5490774,
          53.8007554
        ],
        "type": "Point"
      },
      "id": "28"
    },
    {
      "type": "Feature",
      "properties": {
        "id": "29",
        "unique.id": "P-21",
        "Trial": "Personalised Budgets",
        "Provider": "Your Place",
        "Area": "Newham",
        "URL": "https://www.homelessnessimpact.org/projects/personalised-budgets",
        "onsCode": "E09000025",
        "Participants": "N/A"
      },
      "geometry": {
        "coordinates": [
          0.0293731,
          51.5259127
        ],
        "type": "Point"
      },
      "id": "29"
    },
    {
      "type": "Feature",
      "properties": {
        "id": "30",
        "unique.id": "P-22",
        "Trial": "Personalised Budgets",
        "Provider": "Porchlight",
        "Area": "Tonbridge",
        "URL": "https://www.homelessnessimpact.org/projects/personalised-budgets",
        "onsCode": "E07000115",
        "Participants": "N/A"
      },
      "geometry": {
        "coordinates": [
          0.27568,
          51.195043
        ],
        "type": "Point"
      },
      "id": "30"
    },
    {
      "type": "Feature",
      "properties": {
        "id": "31",
        "unique.id": "P-23",
        "Trial": "Personalised Budgets",
        "Provider": "Porchlight",
        "Area": "Tunbridge Wells",
        "URL": "https://www.homelessnessimpact.org/projects/personalised-budgets",
        "onsCode": "E07000116",
        "Participants": "N/A"
      },
      "geometry": {
        "coordinates": [
          0.263695,
          51.132377
        ],
        "type": "Point"
      },
      "id": "31"
    },
    {
      "type": "Feature",
      "properties": {
        "id": "32",
        "unique.id": "P-24",
        "Trial": "Personalised Budgets",
        "Provider": "Porchlight",
        "Area": "Thanet",
        "URL": "https://www.homelessnessimpact.org/projects/personalised-budgets",
        "onsCode": "E07000114",
        "Participants": "N/A"
      },
      "geometry": {
        "coordinates": [
          1.3484663,
          51.3602516
        ],
        "type": "Point"
      },
      "id": "32"
    },
    {
      "type": "Feature",
      "properties": {
        "id": "33",
        "unique.id": "P-25",
        "Trial": "Personalised Budgets",
        "Provider": "Porchlight",
        "Area": "Dartford",
        "URL": "https://www.homelessnessimpact.org/projects/personalised-budgets",
        "onsCode": "E07000107",
        "Participants": "N/A"
      },
      "geometry": {
        "coordinates": [
          0.216872,
          51.44621
        ],
        "type": "Point"
      },
      "id": "33"
    },
    {
      "type": "Feature",
      "properties": {
        "id": "34",
        "unique.id": "P-26",
        "Trial": "Personalised Budgets",
        "Provider": "Porchlight",
        "Area": "Canterbury",
        "URL": "https://www.homelessnessimpact.org/projects/personalised-budgets",
        "onsCode": "E07000106",
        "Participants": "N/A"
      },
      "geometry": {
        "coordinates": [
          1.0789089,
          51.280233
        ],
        "type": "Point"
      },
      "id": "34"
    },
    {
      "type": "Feature",
      "properties": {
        "id": "35",
        "unique.id": "P-27",
        "Trial": "Personalised Budgets",
        "Provider": "Porchlight",
        "Area": "Folkestone",
        "URL": "https://www.homelessnessimpact.org/projects/personalised-budgets",
        "onsCode": "E07000112",
        "Participants": "N/A"
      },
      "geometry": {
        "coordinates": [
          1.169456,
          51.081397
        ],
        "type": "Point"
      },
      "id": "35"
    },
    {
      "type": "Feature",
      "properties": {
        "id": "36",
        "unique.id": "P-28",
        "Trial": "Personalised Budgets",
        "Provider": "Porchlight",
        "Area": "Dover",
        "URL": "https://www.homelessnessimpact.org/projects/personalised-budgets",
        "onsCode": "E07000108",
        "Participants": "N/A"
      },
      "geometry": {
        "coordinates": [
          1.3134228,
          51.1251275
        ],
        "type": "Point"
      },
      "id": "36"
    },
    {
      "type": "Feature",
      "properties": {
        "id": "37",
        "unique.id": "P-29",
        "Trial": "Personalised Budgets",
        "Provider": "Porchlight",
        "Area": "Sevenoaks",
        "URL": "https://www.homelessnessimpact.org/projects/personalised-budgets",
        "onsCode": "E07000111",
        "Participants": "N/A"
      },
      "geometry": {
        "coordinates": [
          0.190898,
          51.27241
        ],
        "type": "Point"
      },
      "id": "37"
    },
    {
      "type": "Feature",
      "properties": {
        "id": "38",
        "unique.id": "P-30",
        "Trial": "Personalised Budgets",
        "Provider": "Islington Council",
        "Area": "Islington",
        "URL": "https://www.homelessnessimpact.org/projects/personalised-budgets",
        "onsCode": "E09000019",
        "Participants": "N/A"
      },
      "geometry": {
        "coordinates": [
          -0.1028346,
          51.538621
        ],
        "type": "Point"
      },
      "id": "38"
    },
    {
      "type": "Feature",
      "properties": {
        "id": "39",
        "unique.id": "P-31",
        "Trial": "Personalised Budgets",
        "Provider": "Gravesham Borough Council",
        "Area": "Gravesham",
        "URL": "https://www.homelessnessimpact.org/projects/personalised-budgets",
        "onsCode": "E07000109",
        "Participants": "N/A"
      },
      "geometry": {
        "coordinates": [
          0.3989787,
          51.409275
        ],
        "type": "Point"
      },
      "id": "39"
    },
    {
      "type": "Feature",
      "properties": {
        "id": "40",
        "unique.id": "U-1",
        "Trial": "Using Data to Prevent Homelessness",
        "Provider": "Royal Borough of Kensington and Chelsea",
        "Area": "Royal Borough of Kensington and Chelsea",
        "URL": "https://www.homelessnessimpact.org/projects/using-data-to-prevent-homelessness",
        "onsCode": "E09000020",
        "Participants": "N/A"
      },
      "geometry": {
        "coordinates": [
          -0.1938253,
          51.4990805
        ],
        "type": "Point"
      },
      "id": "40"
    },
    {
      "type": "Feature",
      "properties": {
        "id": "41",
        "unique.id": "U-2",
        "Trial": "Using Data to Prevent Homelessness",
        "Provider": "Newham Council",
        "Area": "Newham",
        "URL": "https://www.homelessnessimpact.org/projects/using-data-to-prevent-homelessness",
        "onsCode": "E09000025",
        "Participants": "500"
      },
      "geometry": {
        "coordinates": [
          0.001847,
          51.540861
        ],
        "type": "Point"
      },
      "id": "41"
    },
    {
      "type": "Feature",
      "properties": {
        "id": "42",
        "unique.id": "U-3",
        "Trial": "Using Data to Prevent Homelessness",
        "Provider": "Test Valley Borough Council",
        "Area": "Test Valley",
        "URL": "https://www.homelessnessimpact.org/projects/using-data-to-prevent-homelessness",
        "onsCode": "E07000093",
        "Participants": "420"
      },
      "geometry": {
        "coordinates": [
          -1.445895,
          50.929312
        ],
        "type": "Point"
      },
      "id": "42"
    },
    {
      "type": "Feature",
      "properties": {
        "id": "43",
        "unique.id": "U-4",
        "Trial": "Using Data to Prevent Homelessness",
        "Provider": "Stockport Metropoliton Borough Council",
        "Area": "Stockport",
        "URL": "https://www.homelessnessimpact.org/projects/using-data-to-prevent-homelessness",
        "onsCode": "E08000007",
        "Participants": "200"
      },
      "geometry": {
        "coordinates": [
          -2.1575332,
          53.4106316
        ],
        "type": "Point"
      },
      "id": "43"
    },
    {
      "type": "Feature",
      "properties": {
        "id": "44",
        "unique.id": "U-5",
        "Trial": "Using Data to Prevent Homelessness",
        "Provider": "London Borough of Barking and Dagenham",
        "Area": "Barking and Dagenham",
        "URL": "https://www.homelessnessimpact.org/projects/using-data-to-prevent-homelessness",
        "onsCode": "E09000002",
        "Participants": "500"
      },
      "geometry": {
        "coordinates": [
          0.134017,
          51.5540666
        ],
        "type": "Point"
      },
      "id": "44"
    },
    {
      "type": "Feature",
      "properties": {
        "id": "45",
        "unique.id": "C-1",
        "Trial": "Citadel",
        "Provider": "Bristol City Council",
        "Area": "Bristol City",
        "URL": "https://www.homelessnessimpact.org/projects/citadel",
        "onsCode": "E06000023",
        "Participants": "42"
      },
      "geometry": {
        "coordinates": [
          -2.58791,
          51.454513
        ],
        "type": "Point"
      },
      "id": "45"
    },
    {
      "type": "Feature",
      "properties": {
        "id": "46",
        "unique.id": "C-2",
        "Trial": "Citadel",
        "Provider": "Royal Borough of Greenwich",
        "Area": "Southwark",
        "URL": "https://www.homelessnessimpact.org/projects/citadel",
        "onsCode": "E09000028",
        "Participants": "N/A"
      },
      "geometry": {
        "coordinates": [
          -0.087738,
          51.502781
        ],
        "type": "Point"
      },
      "id": "46"
    },
    {
      "type": "Feature",
      "properties": {
        "id": "47",
        "unique.id": "C-3",
        "Trial": "Citadel",
        "Provider": "Royal Borough of Greenwich",
        "Area": "Lambeth",
        "URL": "https://www.homelessnessimpact.org/projects/citadel",
        "onsCode": "E09000022",
        "Participants": "N/A"
      },
      "geometry": {
        "coordinates": [
          0.116481,
          51.459804
        ],
        "type": "Point"
      },
      "id": "47"
    },
    {
      "type": "Feature",
      "properties": {
        "id": "48",
        "unique.id": "C-4",
        "Trial": "Citadel",
        "Provider": "Royal Borough of Greenwich",
        "Area": "Lewisham",
        "URL": "https://www.homelessnessimpact.org/projects/citadel",
        "onsCode": "E09000023",
        "Participants": "N/A"
      },
      "geometry": {
        "coordinates": [
          -0.0073177,
          51.4611509
        ],
        "type": "Point"
      },
      "id": "48"
    },
    {
      "type": "Feature",
      "properties": {
        "id": "49",
        "unique.id": "C-5",
        "Trial": "Citadel",
        "Provider": "Royal Borough of Greenwich",
        "Area": "Greenwich",
        "URL": "https://www.homelessnessimpact.org/projects/citadel",
        "onsCode": "E09000011",
        "Participants": "77"
      },
      "geometry": {
        "coordinates": [
          0.0098214,
          51.4933675
        ],
        "type": "Point"
      },
      "id": "49"
    },
    {
      "type": "Feature",
      "properties": {
        "id": "50",
        "unique.id": "C-6",
        "Trial": "Citadel",
        "Provider": "Royal Borough of Greenwich",
        "Area": "Bromley",
        "URL": "https://www.homelessnessimpact.org/projects/citadel",
        "onsCode": "E09000006",
        "Participants": "N/A"
      },
      "geometry": {
        "coordinates": [
          0.0186804,
          51.4063204
        ],
        "type": "Point"
      },
      "id": "50"
    },
    {
      "type": "Feature",
      "properties": {
        "id": "51",
        "unique.id": "C-7",
        "Trial": "Citadel",
        "Provider": "Royal Borough of Greenwich",
        "Area": "Bexley",
        "URL": "https://www.homelessnessimpact.org/projects/citadel",
        "onsCode": "E09000004",
        "Participants": "N/A"
      },
      "geometry": {
        "coordinates": [
          0.154327,
          51.439933
        ],
        "type": "Point"
      },
      "id": "51"
    },
    {
      "type": "Feature",
      "properties": {
        "id": "52",
        "unique.id": "C-8",
        "Trial": "Citadel",
        "Provider": "Sheffield City Council",
        "Area": "Sheffield",
        "URL": "https://www.homelessnessimpact.org/projects/citadel",
        "onsCode": "E08000019",
        "Participants": "16"
      },
      "geometry": {
        "coordinates": [
          -1.4741,
          53.377527
        ],
        "type": "Point"
      },
      "id": "52"
    },
    {
      "type": "Feature",
      "properties": {
        "id": "53",
        "unique.id": "C-9",
        "Trial": "Citadel",
        "Provider": "Cornwall Council",
        "Area": "Cornwall",
        "URL": "https://www.homelessnessimpact.org/projects/citadel",
        "onsCode": "E06000052",
        "Participants": "16"
      },
      "geometry": {
        "coordinates": [
          -4.6524982,
          50.5036299
        ],
        "type": "Point"
      },
      "id": "53"
    },
    {
      "type": "Feature",
      "properties": {
        "id": "54",
        "unique.id": "C-10",
        "Trial": "Citadel",
        "Provider": "Hastings Borough Council",
        "Area": "Hastings",
        "URL": "https://www.homelessnessimpact.org/projects/citadel",
        "onsCode": "E07000062",
        "Participants": "24"
      },
      "geometry": {
        "coordinates": [
          0.573453,
          50.854259
        ],
        "type": "Point"
      },
      "id": "54"
    },
    {
      "type": "Feature",
      "properties": {
        "id": "55",
        "unique.id": "A-1",
        "Trial": "Accommodation and Immigration Advice",
        "Provider": "Coventry City Council",
        "Area": "Coventry",
        "URL": "https://www.homelessnessimpact.org/projects/support-for-non-uk-nationals",
        "onsCode": "E08000026",
        "Participants": "36"
      },
      "geometry": {
        "coordinates": [
          -1.5089521,
          52.4128163
        ],
        "type": "Point"
      },
      "id": "55"
    },
    {
      "type": "Feature",
      "properties": {
        "id": "56",
        "unique.id": "A-2",
        "Trial": "Accommodation and Immigration Advice",
        "Provider": "Reading Borough Council",
        "Area": "Reading",
        "URL": "https://www.homelessnessimpact.org/projects/support-for-non-uk-nationals",
        "onsCode": "E06000038",
        "Participants": "15"
      },
      "geometry": {
        "coordinates": [
          -0.9700664,
          51.4564242
        ],
        "type": "Point"
      },
      "id": "56"
    },
    {
      "type": "Feature",
      "properties": {
        "id": "57",
        "unique.id": "A-3",
        "Trial": "Accommodation and Immigration Advice",
        "Provider": "Wolverhampton City Council",
        "Area": "Wolverhampton",
        "URL": "https://www.homelessnessimpact.org/projects/support-for-non-uk-nationals",
        "onsCode": "E08000031",
        "Participants": "19"
      },
      "geometry": {
        "coordinates": [
          -2.1256587,
          52.5868159
        ],
        "type": "Point"
      },
      "id": "57"
    },
    {
      "type": "Feature",
      "properties": {
        "id": "58",
        "unique.id": "A-4",
        "Trial": "Accommodation and Immigration Advice",
        "Provider": "Luton Borough Council",
        "Area": "Luton",
        "URL": "https://www.homelessnessimpact.org/projects/support-for-non-uk-nationals",
        "onsCode": "E06000032",
        "Participants": "56"
      },
      "geometry": {
        "coordinates": [
          -0.4200255,
          51.8786707
        ],
        "type": "Point"
      },
      "id": "58"
    },
    {
      "type": "Feature",
      "properties": {
        "id": "59",
        "unique.id": "A-5",
        "Trial": "Accommodate or Connect",
        "Provider": "Great Yarmouth Borough Council",
        "Area": "Great Yarmouth",
        "URL": "https://www.homelessnessimpact.org/projects/accommodate-or-connect",
        "onsCode": "E07000145",
        "Participants": "20"
      },
      "geometry": {
        "coordinates": [
          1.728047,
          52.598233
        ],
        "type": "Point"
      },
      "id": "59"
    },
    {
      "type": "Feature",
      "properties": {
        "id": "60",
        "unique.id": "A-6",
        "Trial": "Accommodate or Connect",
        "Provider": "Cambridge City Council",
        "Area": "Cambridge",
        "URL": "https://www.homelessnessimpact.org/projects/accommodate-or-connect",
        "onsCode": "E07000008",
        "Participants": "43"
      },
      "geometry": {
        "coordinates": [
          0.118769,
          52.210788
        ],
        "type": "Point"
      },
      "id": "60"
    },
    {
      "type": "Feature",
      "properties": {
        "id": "61",
        "unique.id": "A-7",
        "Trial": "Accommodate or Connect",
        "Provider": "Hasting Borough Council",
        "Area": "Hastings",
        "URL": "https://www.homelessnessimpact.org/projects/accommodate-or-connect",
        "onsCode": "E07000062",
        "Participants": "39"
      },
      "geometry": {
        "coordinates": [
          0.591852,
          50.857763
        ],
        "type": "Point"
      },
      "id": "61"
    },
    {
      "type": "Feature",
      "properties": {
        "id": "62",
        "unique.id": "A-8",
        "Trial": "Accommodate or Connect",
        "Provider": "Islington Council",
        "Area": "Islington",
        "URL": "https://www.homelessnessimpact.org/projects/accommodate-or-connect",
        "onsCode": "E09000019",
        "Participants": "28"
      },
      "geometry": {
        "coordinates": [
          -0.114945,
          51.555111
        ],
        "type": "Point"
      },
      "id": "62"
    },
    {
      "type": "Feature",
      "properties": {
        "id": "63",
        "unique.id": "O-1",
        "Trial": "Outreach Health",
        "Provider": "Solihull Metropolitan Borough Council",
        "Area": "Solihull",
        "URL": "https://www.homelessnessimpact.org/projects/nurses-in-outreach-teams",
        "onsCode": "E08000029",
        "Participants": "30"
      },
      "geometry": {
        "coordinates": [
          -1.77761,
          52.411811
        ],
        "type": "Point"
      },
      "id": "63"
    },
    {
      "type": "Feature",
      "properties": {
        "id": "64",
        "unique.id": "O-2",
        "Trial": "Outreach Health",
        "Provider": "Oldham Council",
        "Area": "Oldham",
        "URL": "https://www.homelessnessimpact.org/projects/nurses-in-outreach-teams",
        "onsCode": "E08000004",
        "Participants": "14"
      },
      "geometry": {
        "coordinates": [
          -2.1113659,
          53.5409298
        ],
        "type": "Point"
      },
      "id": "64"
    },
    {
      "type": "Feature",
      "properties": {
        "id": "42",
        "unique.id": "O-3",
        "Trial": "Outreach Health",
        "Provider": "Ealing Council",
        "Area": "Ealing",
        "URL": "https://www.homelessnessimpact.org/projects/nurses-in-outreach-teams",
        "onsCode": "E09000009",
        "Participants": "42"
      },
      "geometry": {
        "coordinates": [
          -0.3043136,
          51.5132537
        ],
        "type": "Point"
      },
      "id": "42"
    },
    {
      "type": "Feature",
      "properties": {
        "id": "66",
        "unique.id": "O-4",
        "Trial": "Outreach Health",
        "Provider": "Croydon Council",
        "Area": "Croydon",
        "URL": "https://www.homelessnessimpact.org/projects/nurses-in-outreach-teams",
        "onsCode": "E09000008",
        "Participants": "62"
      },
      "geometry": {
        "coordinates": [
          -0.0985163,
          51.3827446
        ],
        "type": "Point"
      },
      "id": "66"
    },
    {
      "type": "Feature",
      "properties": {
        "id": "67",
        "unique.id": "O-5",
        "Trial": "Outreach Health",
        "Provider": "Haringey Council",
        "Area": "Haringey",
        "URL": "https://www.homelessnessimpact.org/projects/nurses-in-outreach-teams",
        "onsCode": "E09000014",
        "Participants": "75"
      },
      "geometry": {
        "coordinates": [
          -0.1033379,
          51.590527
        ],
        "type": "Point"
      },
      "id": "67"
    },
    {
      "type": "Feature",
      "properties": {
        "id": "68",
        "unique.id": "O-6",
        "Trial": "Outreach Health",
        "Provider": "Peterborough City Council",
        "Area": "Peterborough",
        "URL": "https://www.homelessnessimpact.org/projects/nurses-in-outreach-teams",
        "onsCode": "E06000031",
        "Participants": "19"
      },
      "geometry": {
        "coordinates": [
          -0.2407997,
          52.5703169
        ],
        "type": "Point"
      },
      "id": "68"
    },
    {
      "type": "Feature",
      "properties": {
        "id": "71",
        "unique.id": "O-9",
        "Trial": "Outreach Health",
        "Provider": "Tameside Metropolitan Borough Council",
        "Area": "Tameside",
        "URL": "https://www.homelessnessimpact.org/projects/nurses-in-outreach-teams",
        "onsCode": "E08000008",
        "Participants": "20"
      },
      "geometry": {
        "coordinates": [
          -2.0973854,
          53.4872256
        ],
        "type": "Point"
      },
      "id": "71"
    },
    {
      "type": "Feature",
      "properties": {
        "id": "72",
        "unique.id": "O-10",
        "Trial": "Outreach Health",
        "Provider": "Royal Borough of Greenwich",
        "Area": "Greenwich",
        "URL": "https://www.homelessnessimpact.org/projects/nurses-in-outreach-teams",
        "onsCode": "E09000011",
        "Participants": "38"
      },
      "geometry": {
        "coordinates": [
          0.0251256,
          51.4748159
        ],
        "type": "Point"
      },
      "id": "72"
    },
    {
      "type": "Feature",
      "properties": {
        "id": "73",
        "unique.id": "O-11",
        "Trial": "Outreach Health",
        "Provider": "Watford Borough Council",
        "Area": "Watford",
        "URL": "https://www.homelessnessimpact.org/projects/nurses-in-outreach-teams",
        "onsCode": "E07000103",
        "Participants": "29"
      },
      "geometry": {
        "coordinates": [
          -0.3970199,
          51.6611283
        ],
        "type": "Point"
      },
      "id": "73"
    },
    {
      "type": "Feature",
      "properties": {
        "id": "74",
        "unique.id": "O-12",
        "Trial": "Outreach Health",
        "Provider": "BCP Council",
        "Area": "Bournemouth, Christchurch and Poole",
        "URL": "https://www.homelessnessimpact.org/projects/nurses-in-outreach-teams",
        "onsCode": "E06000058",
        "Participants": "31"
      },
      "geometry": {
        "coordinates": [
          -1.8667169,
          50.7220101
        ],
        "type": "Point"
      },
      "id": "74"
    },
    {
      "type": "Feature",
      "properties": {
        "id": "75",
        "unique.id": "O-13",
        "Trial": "Outreach Health",
        "Provider": "Kingston Council",
        "Area": "Kingston upon Thames",
        "URL": "https://www.homelessnessimpact.org/projects/nurses-in-outreach-teams",
        "onsCode": "E09000021",
        "Participants": "114"
      },
      "geometry": {
        "coordinates": [
          -0.300689,
          51.41233
        ],
        "type": "Point"
      },
      "id": "75"
    },
    {
      "type": "Feature",
      "properties": {
        "id": "76",
        "unique.id": "O-14",
        "Trial": "Outreach Health",
        "Provider": "Waltham Forest Council",
        "Area": "Waltham Forest",
        "URL": "https://www.homelessnessimpact.org/projects/nurses-in-outreach-teams",
        "onsCode": "E09000031",
        "Participants": "1"
      },
      "geometry": {
        "coordinates": [
          -0.0173754,
          51.5901724
        ],
        "type": "Point"
      },
      "id": "76"
    },
    {
      "type": "Feature",
      "properties": {
        "id": "77",
        "unique.id": "O-15",
        "Trial": "Outreach Health",
        "Provider": "Hounslow Council",
        "Area": "Hounslow",
        "URL": "https://www.homelessnessimpact.org/projects/nurses-in-outreach-teams",
        "onsCode": "E09000018",
        "Participants": "57"
      },
      "geometry": {
        "coordinates": [
          -0.3632267,
          51.4704304
        ],
        "type": "Point"
      },
      "id": "77"
    },
    {
      "type": "Feature",
      "properties": {
        "id": "78",
        "unique.id": "O-16",
        "Trial": "Outreach Health",
        "Provider": "Preston City Council",
        "Area": "Preston",
        "URL": "https://www.homelessnessimpact.org/projects/nurses-in-outreach-teams",
        "onsCode": "E07000123",
        "Participants": "29"
      },
      "geometry": {
        "coordinates": [
          -2.6992717,
          53.7593363
        ],
        "type": "Point"
      },
      "id": "78"
    },
    {
      "type": "Feature",
      "properties": {
        "id": "79",
        "unique.id": "O-17",
        "Trial": "Outreach Health",
        "Provider": "Liverpool City Council",
        "Area": "Liverpool",
        "URL": "https://www.homelessnessimpact.org/projects/nurses-in-outreach-teams",
        "onsCode": "E08000012",
        "Participants": "25"
      },
      "geometry": {
        "coordinates": [
          -2.9915726,
          53.4083714
        ],
        "type": "Point"
      },
      "id": "79"
    },
    {
      "type": "Feature",
      "properties": {
        "id": "80",
        "unique.id": "S-1",
        "Trial": "Systems-wide Evaluation",
        "Provider": "BCP Council",
        "Area": "Bournemouth, Christchurch and Poole",
        "URL": "https://www.homelessnessimpact.org/projects/systems-wide-evaluation",
        "onsCode": "E06000058",
        "Participants": "N/A"
      },
      "geometry": {
        "coordinates": [
          -1.89203,
          50.7267422
        ],
        "type": "Point"
      },
      "id": "80"
    },
    {
      "type": "Feature",
      "properties": {
        "id": "81",
        "unique.id": "S-2",
        "Trial": "Systems-wide Evaluation",
        "Provider": "Herefordshire Council",
        "Area": "Herefordshire",
        "URL": "https://www.homelessnessimpact.org/projects/systems-wide-evaluation",
        "onsCode": "E06000019",
        "Participants": "N/A"
      },
      "geometry": {
        "coordinates": [
          -2.6544182,
          52.0765164
        ],
        "type": "Point"
      },
      "id": "81"
    },
    {
      "type": "Feature",
      "properties": {
        "id": "82",
        "unique.id": "S-3",
        "Trial": "Systems-wide Evaluation",
        "Provider": "Manchester City Council",
        "Area": "Manchester",
        "URL": "https://www.homelessnessimpact.org/projects/systems-wide-evaluation",
        "onsCode": "E47000001",
        "Participants": "N/A"
      },
      "geometry": {
        "coordinates": [
          -2.234026,
          53.481698
        ],
        "type": "Point"
      },
      "id": "82"
    },
    {
      "type": "Feature",
      "properties": {
        "id": "83",
        "unique.id": "S-4",
        "Trial": "Systems-wide Evaluation",
        "Provider": "Southend-on-Sea City Council",
        "Area": "Southend-on-Sea",
        "URL": "https://www.homelessnessimpact.org/projects/systems-wide-evaluation",
        "onsCode": "E06000033",
        "Participants": "N/A"
      },
      "geometry": {
        "coordinates": [
          0.7077123,
          51.5459269
        ],
        "type": "Point"
      },
      "id": "83"
    },
    {
      "type": "Feature",
      "properties": {
        "id": "84",
        "unique.id": "S-5",
        "Trial": "Systems-wide Evaluation",
        "Provider": "Westminster City Council",
        "Area": "Westminister",
        "URL": "https://www.homelessnessimpact.org/projects/systems-wide-evaluation",
        "onsCode": "E09000033",
        "Participants": "N/A"
      },
      "geometry": {
        "coordinates": [
          -0.1356583,
          51.4974948
        ],
        "type": "Point"
      },
      "id": "84"
    },
    {
      "type": "Feature",
      "properties": {
        "id": "85",
        "unique.id": "S-6",
        "Trial": "Systems-wide Evaluation",
        "Provider": "East Riding of Yorkshire Council",
        "Area": "East Riding",
        "URL": "https://www.homelessnessimpact.org/projects/systems-wide-evaluation",
        "onsCode": "E06000011",
        "Participants": "N/A"
      },
      "geometry": {
        "coordinates": [
          -0.7189977,
          53.8215889
        ],
        "type": "Point"
      },
      "id": "85"
    },
    {
      "type": "Feature",
      "properties": {
        "id": "86",
        "unique.id": "S-7",
        "Trial": "Systems-wide Evaluation",
        "Provider": "Fenland District Council",
        "Area": "Fenland",
        "URL": "https://www.homelessnessimpact.org/projects/systems-wide-evaluation",
        "onsCode": "E07000010",
        "Participants": "N/A"
      },
      "geometry": {
        "coordinates": [
          0.0873357,
          52.5474836
        ],
        "type": "Point"
      },
      "id": "86"
    },
    {
      "type": "Feature",
      "properties": {
        "id": "87",
        "unique.id": "S-8",
        "Trial": "Systems-wide Evaluation",
        "Provider": "Royal Borough of Greenwich",
        "Area": "Greenwich",
        "URL": "https://www.homelessnessimpact.org/projects/systems-wide-evaluation",
        "onsCode": "E09000011",
        "Participants": "N/A"
      },
      "geometry": {
        "coordinates": [
          1e-07,
          51.481818
        ],
        "type": "Point"
      },
      "id": "87"
    },
    {
      "type": "Feature",
      "properties": {
        "id": "89",
        "unique.id": "D-1",
        "Trial": "Deep Dive Justice",
        "Provider": "Lambeth Council",
        "Area": "Lambeth",
        "URL": "https://www.homelessnessimpact.org/projects/systems-wide-evaluation",
        "onsCode": "E09000022",
        "Participants": "N/A"
      },
      "geometry": {
        "coordinates": [
          0.106358,
          51.440726
        ],
        "type": "Point"
      },
      "id": "89"
    },
    {
      "type": "Feature",
      "properties": {
        "id": "90",
        "unique.id": "D-2",
        "Trial": "Deep Dive Justice",
        "Provider": "Brent Council",
        "Area": "Brent",
        "URL": "https://www.homelessnessimpact.org/projects/systems-wide-evaluation",
        "onsCode": "E09000005",
        "Participants": "N/A"
      },
      "geometry": {
        "coordinates": [
          -0.2859694,
          51.5570677
        ],
        "type": "Point"
      },
      "id": "90"
    },
    {
      "type": "Feature",
      "properties": {
        "id": "91",
        "unique.id": "D-3",
        "Trial": "Deep Dive Justice",
        "Provider": "Bromley Council",
        "Area": "Bromley",
        "URL": "https://www.homelessnessimpact.org/projects/systems-wide-evaluation",
        "onsCode": "E09000006",
        "Participants": "N/A"
      },
      "geometry": {
        "coordinates": [
          0.0163341,
          51.3995688
        ],
        "type": "Point"
      },
      "id": "91"
    },
    {
      "type": "Feature",
      "properties": {
        "id": "92",
        "unique.id": "D-4",
        "Trial": "Deep Dive Justice",
        "Provider": "Sefton Metropolitan Borough Council",
        "Area": "Sefton",
        "URL": "https://www.homelessnessimpact.org/projects/systems-wide-evaluation",
        "onsCode": "E08000014",
        "Participants": "N/A"
      },
      "geometry": {
        "coordinates": [
          -2.970359,
          53.5034449
        ],
        "type": "Point"
      },
      "id": "92"
    },
    {
      "type": "Feature",
      "properties": {
        "id": "93",
        "unique.id": "D-5",
        "Trial": "Deep Dive Justice",
        "Provider": "Liverpool City Council",
        "Area": "Liverpool",
        "URL": "https://www.homelessnessimpact.org/projects/systems-wide-evaluation",
        "onsCode": "E08000012",
        "Participants": "N/A"
      },
      "geometry": {
        "coordinates": [
          -2.979882,
          53.399862
        ],
        "type": "Point"
      },
      "id": "93"
    },
    {
      "type": "Feature",
      "properties": {
        "id": "94",
        "unique.id": "S-9",
        "Trial": "Systems-wide Evaluation",
        "Provider": "Leicester City Council",
        "Area": "Leicester",
        "URL": "https://www.homelessnessimpact.org/projects/systems-wide-evaluation",
        "onsCode": "E06000016",
        "Participants": "N/A"
      },
      "geometry": {
        "coordinates": [
          -1.129961,
          52.634316
        ],
        "type": "Point"
      },
      "id": "94"
    },
    {
      "type": "Feature",
      "properties": {
        "id": "95",
        "unique.id": "S-10",
        "Trial": "Systems-wide Evaluation",
        "Provider": "Liverpool City Council",
        "Area": "Liverpool City",
        "URL": "https://www.homelessnessimpact.org/projects/systems-wide-evaluation",
        "onsCode": "E08000012",
        "Participants": "N/A"
      },
      "geometry": {
        "coordinates": [
          -2.979882,
          53.399862
        ],
        "type": "Point"
      },
      "id": "95"
    },
    {
      "type": "Feature",
      "properties": {
        "id": "96",
        "unique.id": "S-11",
        "Trial": "Systems-wide Evaluation",
        "Provider": "Royal Borough of Greenwich ",
        "Area": "Greenwich ",
        "URL": "https://www.homelessnessimpact.org/projects/systems-wide-evaluation",
        "onsCode": "E09000011",
        "Participants": "N/A"
      },
      "geometry": {
        "coordinates": [
          0.0251256,
          51.4748159
        ],
        "type": "Point"
      },
      "id": "96"
    },
    {
      "type": "Feature",
      "properties": {
        "id": "97",
        "unique.id": "S-12",
        "Trial": "Systems-wide Evaluation",
        "Provider": "Brent Council",
        "Area": "Brent",
        "URL": "https://www.homelessnessimpact.org/projects/systems-wide-evaluation",
        "onsCode": "E09000005",
        "Participants": "N/A"
      },
      "geometry": {
        "coordinates": [
          -0.2859694,
          51.5570677
        ],
        "type": "Point"
      },
      "id": "97"
    },
    {
      "type": "Feature",
      "properties": {
        "id": "98",
        "unique.id": "S-13",
        "Trial": "Systems-wide Evaluation",
        "Provider": "Middlesbrough Council",
        "Area": "Middlesbrough",
        "URL": "https://www.homelessnessimpact.org/projects/systems-wide-evaluation",
        "onsCode": "E06000002",
        "Participants": "N/A"
      },
      "geometry": {
        "coordinates": [
          -1.231039,
          54.573935
        ],
        "type": "Point"
      },
      "id": "98"
    },
    {
      "type": "Feature",
      "properties": {
        "id": "99",
        "unique.id": "S-14",
        "Trial": "Systems-wide Evaluation",
        "Provider": "Salford City Council",
        "Area": "Salford",
        "URL": "https://www.homelessnessimpact.org/projects/systems-wide-evaluation",
        "onsCode": "E08000006",
        "Participants": "N/A"
      },
      "geometry": {
        "coordinates": [
          -2.279737,
          53.495186
        ],
        "type": "Point"
      },
      "id": "99"
    },
    {
      "type": "Feature",
      "properties": {
        "id": "100",
        "unique.id": "S-15",
        "Trial": "Systems-wide Evaluation",
        "Provider": "Hackney Council",
        "Area": "Hackney",
        "URL": "https://www.homelessnessimpact.org/projects/systems-wide-evaluation",
        "onsCode": "E09000012",
        "Participants": "N/A"
      },
      "geometry": {
        "coordinates": [
          -0.057504,
          51.54498
        ],
        "type": "Point"
      },
      "id": "100"
    },
    {
      "type": "Feature",
      "properties": {
        "id": "101",
        "unique.id": "S-16",
        "Trial": "Systems-wide Evaluation",
        "Provider": "Newham Council",
        "Area": "Newham",
        "URL": "https://www.homelessnessimpact.org/projects/systems-wide-evaluation",
        "onsCode": "E09000025",
        "Participants": "N/A"
      },
      "geometry": {
        "coordinates": [
          0.001847,
          51.540861
        ],
        "type": "Point"
      },
      "id": "101"
    },
    {
      "type": "Feature",
      "properties": {
        "id": "102",
        "unique.id": "S-17",
        "Trial": "Systems-wide Evaluation",
        "Provider": "London Borough of Tower Hamlets",
        "Area": "Tower Hamlets",
        "URL": "https://www.homelessnessimpact.org/projects/systems-wide-evaluation",
        "onsCode": "E09000030",
        "Participants": "N/A"
      },
      "geometry": {
        "coordinates": [
          -0.060284,
          51.51898
        ],
        "type": "Point"
      },
      "id": "102"
    },
    {
      "type": "Feature",
      "properties": {
        "id": "103",
        "unique.id": "S-18",
        "Trial": "Systems-wide Evaluation",
        "Provider": "London Borough of Waltham Forest",
        "Area": "Waltham Forest",
        "URL": "https://www.homelessnessimpact.org/projects/systems-wide-evaluation",
        "onsCode": "E09000031",
        "Participants": "N/A"
      },
      "geometry": {
        "coordinates": [
          -0.0173754,
          51.5901724
        ],
        "type": "Point"
      },
      "id": "103"
    },
    {
      "type": "Feature",
      "properties": {
        "id": "104",
        "unique.id": "S-19",
        "Trial": "Systems-wide Evaluation",
        "Provider": "Wychavon District Council",
        "Area": "Wychavon",
        "URL": "https://www.homelessnessimpact.org/projects/systems-wide-evaluation",
        "onsCode": "E07000238",
        "Participants": "N/A"
      },
      "geometry": {
        "coordinates": [
          -2.078009,
          52.114612
        ],
        "type": "Point"
      },
      "id": "104"
    },
    {
      "type": "Feature",
      "properties": {
        "id": "105",
        "unique.id": "S-20",
        "Trial": "Systems-wide Evaluation",
        "Provider": "Bristol City Council",
        "Area": "Bristol",
        "URL": "https://www.homelessnessimpact.org/projects/systems-wide-evaluation",
        "onsCode": "E06000023",
        "Participants": "N/A"
      },
      "geometry": {
        "coordinates": [
          -2.58791,
          51.454513
        ],
        "type": "Point"
      },
      "id": "105"
    },
    {
      "type": "Feature",
      "properties": {
        "id": "106",
        "unique.id": "S-21",
        "Trial": "Systems-wide Evaluation",
        "Provider": "Brighton & Hove City Council",
        "Area": "Brighton",
        "URL": "https://www.homelessnessimpact.org/projects/systems-wide-evaluation",
        "onsCode": "E06000043",
        "Participants": "N/A"
      },
      "geometry": {
        "coordinates": [
          -0.145903,
          50.830846
        ],
        "type": "Point"
      },
      "id": "106"
    },
    {
      "type": "Feature",
      "properties": {
        "id": "107",
        "unique.id": "S-22",
        "Trial": "Systems-wide Evaluation",
        "Provider": "Gloucestershire County Council",
        "Area": "Gloucestershire",
        "URL": "https://www.homelessnessimpact.org/projects/systems-wide-evaluation",
        "onsCode": "E10000013",
        "Participants": "N/A"
      },
      "geometry": {
        "coordinates": [
          -2.248644,
          51.866459
        ],
        "type": "Point"
      },
      "id": "107"
    },
    {
      "type": "Feature",
      "properties": {
        "id": "108",
        "unique.id": "S-23",
        "Trial": "Systems-wide Evaluation",
        "Provider": "Peterborough City Council",
        "Area": "Peterborough",
        "URL": "https://www.homelessnessimpact.org/projects/systems-wide-evaluation",
        "onsCode": "E06000031",
        "Participants": "N/A"
      },
      "geometry": {
        "coordinates": [
          -0.2407997,
          52.5703169
        ],
        "type": "Point"
      },
      "id": "108"
    },
    {
      "type": "Feature",
      "properties": {
        "id": "109",
        "unique.id": "S-24",
        "Trial": "Systems-wide Evaluation",
        "Provider": "Tameside Metropolitan Borough Council",
        "Area": "Tameside",
        "URL": "https://www.homelessnessimpact.org/projects/systems-wide-evaluation",
        "onsCode": "E08000008",
        "Participants": "N/A"
      },
      "geometry": {
        "coordinates": [
          -2.0973854,
          53.4872256
        ],
        "type": "Point"
      },
      "id": "109"
    },
    {
      "type": "Feature",
      "properties": {
        "id": "110",
        "unique.id": "S-25",
        "Trial": "Systems-wide Evaluation",
        "Provider": "Leicestershire County Council",
        "Area": "Leicestershire",
        "URL": "https://www.homelessnessimpact.org/projects/systems-wide-evaluation",
        "onsCode": "E10000018",
        "Participants": "N/A"
      },
      "geometry": {
        "coordinates": [
          -1.187789,
          52.655938
        ],
        "type": "Point"
      },
      "id": "110"
    },
    {
      "type": "Feature",
      "properties": {
        "id": "111",
        "unique.id": "S-26",
        "Trial": "Systems-wide Evaluation",
        "Provider": "Islington Council",
        "Area": "Islington",
        "URL": "https://www.homelessnessimpact.org/projects/systems-wide-evaluation",
        "onsCode": "E09000019",
        "Participants": "N/A"
      },
      "geometry": {
        "coordinates": [
          -0.1028346,
          51.538621
        ],
        "type": "Point"
      },
      "id": "111"
    }
  ]
}
